GECAM-B                 
1 47235U 20094B   26058.19405615  .00003224  00000+0  23073-3 0  9996
2 47235  28.9982  10.8844 0010635 257.2071 102.7339 15.01652363285175
STARLINK-34575          
1 64859U 25152T   26068.56245338  .00002350  00000+0  16705-3 0  9996
2 64859  97.6011 285.4649 0001654  72.1858 287.9549 15.05649320 35404
