[{"OBJECT_NAME":"GECAM-B","OBJECT_ID":"2020-094B","EPOCH":"2026-02-27T04:39:26.451360","MEAN_MOTION":15.01652363,"ECCENTRICITY":0.0010635,"INCLINATION":28.9982,"RA_OF_ASC_NODE":10.8844,"ARG_OF_PERICENTER":257.2071,"MEAN_ANOMALY":102.7339,"EPHEMERIS_TYPE":0,"CLASSIFICATION_TYPE":"U","NORAD_CAT_ID":47235,"ELEMENT_SET_NO":999,"REV_AT_EPOCH":28517,"BSTAR":0.00023073,"MEAN_MOTION_DOT":3.224e-5,"MEAN_MOTION_DDOT":0},{"OBJECT_NAME":"STARLINK-34575","OBJECT_ID":"2025-152T","EPOCH":"2026-03-09T13:29:55.972032","MEAN_MOTION":15.0564932,"ECCENTRICITY":0.00016547,"INCLINATION":97.6011,"RA_OF_ASC_NODE":285.4649,"ARG_OF_PERICENTER":72.1858,"MEAN_ANOMALY":287.9549,"EPHEMERIS_TYPE":0,"CLASSIFICATION_TYPE":"U","NORAD_CAT_ID":64859,"ELEMENT_SET_NO":999,"REV_AT_EPOCH":3540,"BSTAR":0.00016704605,"MEAN_MOTION_DOT":2.35e-5,"MEAN_MOTION_DDOT":0}]
